{"type": "FeatureCollection", "features": [ {"type": "Feature", "properties": {"norad_id": 65077, "name": "CREW DRAGON 11", "group": "stations", "lat": -51.60912982888808, "lon": 82.31606665324179, "alt_km": 421.8437116465002, "timestamp": "2025-12-06T18:50:08.975653+00:00", "meta": {"OBJECT_NAME": "CREW DRAGON 11", "OBJECT_ID": "2025-166A", "EPOCH": "2025-12-06T00:38:46.837536", "MEAN_MOTION": 15.49350538, "ECCENTRICITY": 0.00036145, "INCLINATION": 51.6296, "RA_OF_ASC_NODE": 175.7148, "ARG_OF_PERICENTER": 210.2448, "MEAN_ANOMALY": 149.8333, "EPHEMERIS_TYPE": 0, "CLASSIFICATION_TYPE": "U", "NORAD_CAT_ID": 65077, "ELEMENT_SET_NO": 999, "REV_AT_EPOCH": 214, "BSTAR": 0.00025885847, "MEAN_MOTION_DOT": 0.00014013, "MEAN_MOTION_DDOT": 0}, "tle": {"line1": "1 65077U 25166A   25340.02693099  .00014013  00000+0  25886-3 0  9997", "line2": "2 65077  51.6296 175.7148 0003614 210.2448 149.8333 15.49350538  2145"}}, "geometry": {"type": "Point", "coordinates": [82.31606665324179, -51.60912982888808]}}, {"type": "Feature", "properties": {"norad_id": 65304, "name": "DRAGON CRS-33", "group": "stations", "lat": -51.60912982575663, "lon": 82.31606769133582, "alt_km": 421.84371166964047, "timestamp": "2025-12-06T18:50:08.975663+00:00", "meta": {"OBJECT_NAME": "DRAGON CRS-33", "OBJECT_ID": "2025-186A", "EPOCH": "2025-12-06T00:38:46.837536", "MEAN_MOTION": 15.49350538, "ECCENTRICITY": 0.00036145, "INCLINATION": 51.6296, "RA_OF_ASC_NODE": 175.7148, "ARG_OF_PERICENTER": 210.2448, "MEAN_ANOMALY": 149.8333, "EPHEMERIS_TYPE": 0, "CLASSIFICATION_TYPE": "U", "NORAD_CAT_ID": 65304, "ELEMENT_SET_NO": 999, "REV_AT_EPOCH": 11, "BSTAR": 0.00025885847, "MEAN_MOTION_DOT": 0.00014013, "MEAN_MOTION_DDOT": 0}, "tle": {"line1": "1 65304U 25186A   25340.02693099  .00014013  00000+0  25886-3 0  9992", "line2": "2 65304  51.6296 175.7148 0003614 210.2448 149.8333 15.49350538   113"}}, "geometry": {"type": "Point", "coordinates": [82.31606769133582, -51.60912982575663]}}, {"type": "Feature", "properties": {"norad_id": 65586, "name": "PROGRESS-MS 32", "group": "stations", "lat": -51.60912982262519, "lon": 82.31606872942714, "alt_km": 421.84371169278074, "timestamp": "2025-12-06T18:50:08.975673+00:00", "meta": {"OBJECT_NAME": "PROGRESS-MS 32", "OBJECT_ID": "2025-204A", "EPOCH": "2025-12-06T00:38:46.837536", "MEAN_MOTION": 15.49350538, "ECCENTRICITY": 0.00036145, "INCLINATION": 51.6296, "RA_OF_ASC_NODE": 175.7148, "ARG_OF_PERICENTER": 210.2448, "MEAN_ANOMALY": 149.8333, "EPHEMERIS_TYPE": 0, "CLASSIFICATION_TYPE": "U", "NORAD_CAT_ID": 65586, "ELEMENT_SET_NO": 999, "REV_AT_EPOCH": 27, "BSTAR": 0.00025885847, "MEAN_MOTION_DOT": 0.00014013, "MEAN_MOTION_DDOT": 0}, "tle": {"line1": "1 65586U 25204A   25340.02693099  .00014013  00000+0  25886-3 0  9995", "line2": "2 65586  51.6296 175.7148 0003614 210.2448 149.8333 15.49350538   272"}}, "geometry": {"type": "Point", "coordinates": [82.31606872942714, -51.60912982262519]}}, {"type": "Feature", "properties": {"norad_id": 65616, "name": "CYGNUS NG-23", "group": "stations", "lat": -51.609129819493724, "lon": 82.31606976752113, "alt_km": 421.84371171592284, "timestamp": "2025-12-06T18:50:08.975683+00:00", "meta": {"OBJECT_NAME": "CYGNUS NG-23", "OBJECT_ID": "2025-208A", "EPOCH": "2025-12-06T00:38:46.837536", "MEAN_MOTION": 15.49350538, "ECCENTRICITY": 0.00036145, "INCLINATION": 51.6296, "RA_OF_ASC_NODE": 175.7148, "ARG_OF_PERICENTER": 210.2448, "MEAN_ANOMALY": 149.8333, "EPHEMERIS_TYPE": 0, "CLASSIFICATION_TYPE": "U", "NORAD_CAT_ID": 65616, "ELEMENT_SET_NO": 999, "REV_AT_EPOCH": 22, "BSTAR": 0.00025885847, "MEAN_MOTION_DOT": 0.00014013, "MEAN_MOTION_DDOT": 0}, "tle": {"line1": "1 65616U 25208A   25340.02693099  .00014013  00000+0  25886-3 0  9993", "line2": "2 65616  51.6296 175.7148 0003614 210.2448 149.8333 15.49350538   221"}}, "geometry": {"type": "Point", "coordinates": [82.31606976752113, -51.609129819493724]}}, {"type": "Feature", "properties": {"norad_id": 65729, "name": "DRAGONFLY", "group": "stations", "lat": 20.883903825386447, "lon": -31.39991619207669, "alt_km": 357.5012589941416, "timestamp": "2025-12-06T18:50:08.975692+00:00", "meta": {"OBJECT_NAME": "DRAGONFLY", "OBJECT_ID": "1998-067XH", "EPOCH": "2025-12-05T22:19:10.752384", "MEAN_MOTION": 15.69233632, "ECCENTRICITY": 0.00065123, "INCLINATION": 51.6246, "RA_OF_ASC_NODE": 170.5624, "ARG_OF_PERICENTER": 233.7397, "MEAN_ANOMALY": 126.2998, "EPHEMERIS_TYPE": 0, "CLASSIFICATION_TYPE": "U", "NORAD_CAT_ID": 65729, "ELEMENT_SET_NO": 999, "REV_AT_EPOCH": 1209, "BSTAR": 0.0014111437, "MEAN_MOTION_DOT": 0.00170954, "MEAN_MOTION_DDOT": 0}, "tle": {"line1": "1 65729U 98067XH  25339.92998556  .00170954  00000+0  14111-2 0  9999", "line2": "2 65729  51.6246 170.5624 0006512 233.7397 126.2998 15.69233632 12097"}}, "geometry": {"type": "Point", "coordinates": [-31.39991619207669, 20.883903825386447]}}, {"type": "Feature", "properties": {"norad_id": 65731, "name": "1998-067XK", "group": "stations", "lat": -43.32058021342821, "lon": 119.05642179259587, "alt_km": 379.5808355644276, "timestamp": "2025-12-06T18:50:08.975703+00:00", "meta": {"OBJECT_NAME": "1998-067XK", "OBJECT_ID": "1998-067XK", "EPOCH": "2025-12-05T20:05:48.700608", "MEAN_MOTION": 15.64093983, "ECCENTRICITY": 0.00057209, "INCLINATION": 51.6273, "RA_OF_ASC_NODE": 172.2071, "ARG_OF_PERICENTER": 204.6703, "MEAN_ANOMALY": 155.4018, "EPHEMERIS_TYPE": 0, "CLASSIFICATION_TYPE": "U", "NORAD_CAT_ID": 65731, "ELEMENT_SET_NO": 999, "REV_AT_EPOCH": 1206, "BSTAR": 0.0011848304, "MEAN_MOTION_DOT": 0.00115678, "MEAN_MOTION_DDOT": 0}, "tle": {"line1": "1 65731U 98067XK  25339.83736922  .00115678  00000+0  11848-2 0  9995", "line2": "2 65731  51.6273 172.2071 0005720 204.6703 155.4018 15.64093983 12065"}}, "geometry": {"type": "Point", "coordinates": [119.05642179259587, -43.32058021342821]}}, {"type": "Feature", "properties": {"norad_id": 65732, "name": "RSP-03", "group": "stations", "lat": -26.25946791738245, "lon": 9.842058186342227, "alt_km": 367.2719845630072, "timestamp": "2025-12-06T18:50:08.975713+00:00", "meta": {"OBJECT_NAME": "RSP-03", "OBJECT_ID": "1998-067XL", "EPOCH": "2025-12-05T18:57:39.721248", "MEAN_MOTION": 15.66485796, "ECCENTRICITY": 0.00063944, "INCLINATION": 51.6249, "RA_OF_ASC_NODE": 171.8843, "ARG_OF_PERICENTER": 207.4241, "MEAN_ANOMALY": 152.6418, "EPHEMERIS_TYPE": 0, "CLASSIFICATION_TYPE": "U", "NORAD_CAT_ID": 65732, "ELEMENT_SET_NO": 999, "REV_AT_EPOCH": 1207, "BSTAR": 0.0013603267, "MEAN_MOTION_DOT": 0.00146827, "MEAN_MOTION_DDOT": 0}, "tle": {"line1": "1 65732U 98067XL  25339.79004307  .00146827  00000+0  13603-2 0  9997", "line2": "2 65732  51.6249 171.8843 0006394 207.4241 152.6418 15.66485796 12070"}}, "geometry": {"type": "Point", "coordinates": [9.842058186342227, -26.25946791738245]}}, {"type": "Feature", "properties": {"norad_id": 65733, "name": "GHS-01", "group": "stations", "lat": 8.626078323464323, "lon": 172.65288562135694, "alt_km": 356.33539968222067, "timestamp": "2025-12-06T18:50:08.975723+00:00", "meta": {"OBJECT_NAME": "GHS-01", "OBJECT_ID": "1998-067XM", "EPOCH": "2025-12-05T18:22:20.248896", "MEAN_MOTION": 15.71403318, "ECCENTRICITY": 0.00069806, "INCLINATION": 51.6266, "RA_OF_ASC_NODE": 170.9683, "ARG_OF_PERICENTER": 233.1607, "MEAN_ANOMALY": 126.8751, "EPHEMERIS_TYPE": 0, "CLASSIFICATION_TYPE": "U", "NORAD_CAT_ID": 65733, "ELEMENT_SET_NO": 999, "REV_AT_EPOCH": 1208, "BSTAR": 0.0017020077, "MEAN_MOTION_DOT": 0.00227447, "MEAN_MOTION_DDOT": 0}, "tle": {"line1": "1 65733U 98067XM  25339.76551214  .00227447  00000+0  17020-2 0  9994", "line2": "2 65733  51.6266 170.9683 0006980 233.1607 126.8751 15.71403318 12085"}}, "geometry": {"type": "Point", "coordinates": [172.65288562135694, 8.626078323464323]}}, {"type": "Feature", "properties": {"norad_id": 65941, "name": "YOTSUBA-KULOVER", "group": "stations", "lat": -8.086711799512138, "lon": -3.6528968673689195, "alt_km": 392.59299243982514, "timestamp": "2025-12-06T18:50:08.975735+00:00", "meta": {"OBJECT_NAME": "YOTSUBA-KULOVER", "OBJECT_ID": "1998-067XN", "EPOCH": "2025-12-05T22:00:54.491904", "MEAN_MOTION": 15.58286182, "ECCENTRICITY": 0.00020197, "INCLINATION": 51.6277, "RA_OF_ASC_NODE": 174.238, "ARG_OF_PERICENTER": 187.9006, "MEAN_ANOMALY": 172.1955, "EPHEMERIS_TYPE": 0, "CLASSIFICATION_TYPE": "U", "NORAD_CAT_ID": 65941, "ELEMENT_SET_NO": 999, "REV_AT_EPOCH": 879, "BSTAR": 0.0010118942, "MEAN_MOTION_DOT": 0.0007842, "MEAN_MOTION_DDOT": 0}, "tle": {"line1": "1 65941U 98067XN  25339.91729736  .00078420  00000+0  10119-2 0  9995", "line2": "2 65941  51.6277 174.2380 0002019 187.9006 172.1955 15.58286182  8793"}}, "geometry": {"type": "Point", "coordinates": [-3.6528968673689195, -8.086711799512138]}}, {"type": "Feature", "properties": {"norad_id": 65942, "name": "BOTAN", "group": "stations", "lat": 51.585844063379696, "lon": -98.44858380383425, "alt_km": 377.15386441440114, "timestamp": "2025-12-06T18:50:08.975745+00:00", "meta": {"OBJECT_NAME": "BOTAN", "OBJECT_ID": "1998-067XP", "EPOCH": "2025-12-05T19:24:08.395200", "MEAN_MOTION": 15.6107927, "ECCENTRICITY": 0.00040957, "INCLINATION": 51.6268, "RA_OF_ASC_NODE": 174.2609, "ARG_OF_PERICENTER": 186.092, "MEAN_ANOMALY": 174.0025, "EPHEMERIS_TYPE": 0, "CLASSIFICATION_TYPE": "U", "NORAD_CAT_ID": 65942, "ELEMENT_SET_NO": 999, "REV_AT_EPOCH": 878, "BSTAR": 0.0014404532, "MEAN_MOTION_DOT": 0.001252, "MEAN_MOTION_DDOT": 0}, "tle": {"line1": "1 65942U 98067XP  25339.80843050  .00125200  00000+0  14405-2 0  9991", "line2": "2 65942  51.6268 174.2609 0004095 186.0920 174.0025 15.61079270  8789"}}, "geometry": {"type": "Point", "coordinates": [-98.44858380383425, 51.585844063379696]}}]}